     2.100          NAVIGATION                              RINEX VERSION / TYPE
fic2rin                                 03/06/2017 00:05:36 PGM / RUN BY / DATE
                                                            END OF HEADER
19 17  3  5  4  0  0.0 -.511409249157D-03  .113686837722D-11  .000000000000D+00
     .460000000000D+02 -.613750000000D+02  .417767401689D-08  .504461761474D+00
    -.303424894810D-05  .101855174871D-01  .954978168011D-05  .515365880585D+04
     .144000000000D+05 -.949949026108D-07 -.196939017984D+01  .106170773506D-06
     .976239482670D+00  .204937500000D+03  .923586337044D+00 -.808497962900D-08
    -.642883921553D-10  .100000000000D+01  .193900000000D+04  .000000000000D+00
     .240000000000D+01  .000000000000D+00 -.153668224812D-07  .460000000000D+02
     .720600000000D+04  .400000000000D+01
20 17  3  5  4  0  0.0  .462695024908D-03  .159161572810D-11  .000000000000D+00
     .840000000000D+02 -.122812500000D+02  .558308970095D-08  .278399562558D+01
    -.610947608948D-06  .452023989055D-02  .664778053761D-05  .515363330460D+04
     .144000000000D+05  .614672899246D-07 -.632953992046D-01 -.372529029846D-08
     .927160158136D+00  .232531250000D+03  .156358085495D+01 -.849571102332D-08
    -.921466954226D-10  .100000000000D+01  .193900000000D+04  .000000000000D+00
     .240000000000D+01  .000000000000D+00 -.838190317154D-08  .840000000000D+02
     .720600000000D+04  .400000000000D+01
21 17  3  5  4  0  0.0 -.518812332302D-03  .170530256582D-11  .000000000000D+00
     .730000000000D+02 -.171250000000D+02  .531307845390D-08 -.215350745949D+00
    -.717118382454D-06  .239436690463D-01  .863894820213D-05  .515372308922D+04
     .144000000000D+05 -.260770320892D-06 -.105262861165D+01  .132247805595D-06
     .938813824998D+00  .205843750000D+03 -.170099896607D+01 -.884393981416D-08
     .316798910232D-09  .100000000000D+01  .193900000000D+04  .000000000000D+00
     .340000000000D+01  .000000000000D+00 -.977888703346D-08  .730000000000D+02
     .720600000000D+04  .400000000000D+01
22 17  3  5  4  0  0.0  .829352065921D-04 -.117097442853D-10  .000000000000D+00
     .480000000000D+02 -.188437500000D+02  .559951895673D-08 -.311927026165D+01
    -.105984508991D-05  .747032568324D-02  .667758285999D-05  .515357206917D+04
     .144000000000D+05  .152736902237D-06 -.118318283403D-01 -.670552253723D-07
     .923833725269D+00  .227906250000D+03 -.179417406767D+01 -.850964017496D-08
    -.109647424398D-09  .100000000000D+01  .193900000000D+04  .000000000000D+00
     .240000000000D+01  .000000000000D+00 -.176951289177D-07  .480000000000D+02
     .720600000000D+04  .400000000000D+01
23 17  3  5  4  0  0.0 -.206824392080D-03 -.909494701773D-12  .000000000000D+00
     .630000000000D+02  .209687500000D+02  .474091176372D-08  .242784859222D+01
     .949949026108D-06  .113236823818D-01  .996515154839D-05  .515379150581D+04
     .144000000000D+05 -.121071934700D-06  .107035071579D+01 -.145286321640D-06
     .944599848867D+00  .179437500000D+03 -.249696661019D+01 -.802176271004D-08
    -.211437378644D-09  .100000000000D+01  .193900000000D+04  .000000000000D+00
     .240000000000D+01  .000000000000D+00 -.200234353542D-07  .630000000000D+02
     .720600000000D+04  .400000000000D+01
24 17  3  5  4  0  0.0 -.313934870064D-04 -.568434188608D-12  .000000000000D+00
     .860000000000D+02  .965625000000D+02  .484663045304D-08  .176046208167D+01
     .493228435516D-05  .557079352438D-02  .772625207901D-05  .515370562172D+04
     .144000000000D+05 -.447034835815D-07  .209468722324D+01  .614672899246D-07
     .946064403951D+00  .220281250000D+03  .469429510926D+00 -.839320675361D-08
     .108575951196D-09  .100000000000D+01  .193900000000D+04  .000000000000D+00
     .240000000000D+01  .000000000000D+00  .232830643654D-08  .860000000000D+02
     .720600000000D+04  .400000000000D+01
25 17  3  5  4  0  0.0 -.346607062966D-03 -.670752342558D-11  .000000000000D+00
     .500000000000D+02 -.218750000000D+01  .448340103736D-08 -.207450319767D+00
    -.894069671631D-07  .625820667483D-02  .404939055443D-05  .515362268448D+04
     .144000000000D+05  .372529029846D-08 -.310863913941D+01  .856816768646D-07
     .977844788029D+00  .313500000000D+03  .762931852500D+00 -.838570644119D-08
    -.257153568621D-10  .100000000000D+01  .193900000000D+04  .000000000000D+00
     .240000000000D+01  .000000000000D+00  .558793544769D-08  .500000000000D+02
     .720600000000D+04  .400000000000D+01
26 17  3  5  4  0  0.0 -.519348308444D-03  .682121026330D-12  .000000000000D+00
     .360000000000D+02 -.156250000000D+01  .474841207614D-08 -.704806307772D+00
    -.134110450745D-06  .174887734465D-02  .384822487831D-05  .515366376495D+04
     .144000000000D+05  .130385160446D-07 -.312257556120D+01 -.931322574615D-08
     .959655340080D+00  .301000000000D+03 -.312651194606D-01 -.840034990829D-08
     .185722021782D-10  .100000000000D+01  .193900000000D+04  .000000000000D+00
     .240000000000D+01  .000000000000D+00  .698491930962D-08  .360000000000D+02
     .720600000000D+04  .400000000000D+01
27 17  3  5  4  0  0.0  .219010747969D-03  .602540239925D-11  .000000000000D+00
     .370000000000D+02 -.596250000000D+02  .421124684391D-08 -.250345808534D+01
    -.321306288242D-05  .447868346237D-02  .856816768646D-05  .515366412544D+04
     .144000000000D+05 -.596046447754D-07 -.206896915852D+01 -.108033418655D-06
     .973974092582D+00  .222906250000D+03  .283972302186D+00 -.792925885689D-08
     .417874549009D-10  .100000000000D+01  .193900000000D+04  .000000000000D+00
     .240000000000D+01  .000000000000D+00  .186264514923D-08  .370000000000D+02
     .720600000000D+04  .400000000000D+01
28 17  3  5  4  0  0.0  .594464596361D-03  .295585778076D-11  .000000000000D+00
     .113000000000D+03 -.189375000000D+02  .404802575938D-08 -.173497971646D+01
    -.501051545143D-06  .198833704926D-01  .466778874397D-05  .515364411736D+04
     .144000000000D+05  .149011611938D-06 -.303091693365D+01  .387430191040D-06
     .989116993150D+00  .301468750000D+03 -.157313001468D+01 -.792104422900D-08
    -.378587198248D-10  .100000000000D+01  .193900000000D+04  .000000000000D+00
     .485000000000D+01  .000000000000D+00 -.111758708954D-07  .113000000000D+03
     .720600000000D+04  .400000000000D+01
29 17  3  5  4  0  0.0  .622631516308D-03 -.261479726760D-11  .000000000000D+00
     .910000000000D+02 -.810625000000D+02  .412267172583D-08 -.430595102643D+00
    -.412948429585D-05  .691078486852D-03  .867433845997D-05  .515367035675D+04
     .144000000000D+05  .372529029846D-07 -.200740989636D+01 -.130385160446D-07
     .980113950983D+00  .225625000000D+03 -.948946359882D-01 -.791890128260D-08
     .132148361653D-10  .100000000000D+01  .193900000000D+04  .000000000000D+00
     .240000000000D+01  .000000000000D+00 -.102445483208D-07  .910000000000D+02
     .720600000000D+04  .400000000000D+01
30 17  3  5  4  0  0.0  .160443596542D-03 -.227373675443D-12  .000000000000D+00
     .610000000000D+02  .823437500000D+02  .478269921862D-08  .955735689542D+00
     .429898500443D-05  .250034511555D-02  .646896660328D-05  .515371038818D+04
     .144000000000D+05  .726431608200D-07  .218684385151D+01  .115483999252D-06
     .948810478199D+00  .248750000000D+03  .305538378795D+01 -.832713257278D-08
     .138220043134D-09  .100000000000D+01  .193900000000D+04  .000000000000D+00
     .240000000000D+01  .000000000000D+00  .372529029846D-08  .610000000000D+02
     .720600000000D+04  .400000000000D+01
31 17  3  5  4  0  0.0  .215420033783D-03 -.227373675443D-11  .000000000000D+00
     .900000000000D+02  .695312500000D+02  .437875382124D-08  .711242603115D+00
     .376440584660D-05  .850213225931D-02  .740960240364D-05  .515365902519D+04
     .144000000000D+05  .182539224625D-06  .215729042959D+01 -.260770320892D-07
     .967813538279D+00  .237343750000D+03 -.275905675345D+00 -.812569561070D-08
     .154292141173D-09  .100000000000D+01  .193900000000D+04  .000000000000D+00
     .240000000000D+01  .000000000000D+00 -.135041773319D-07  .900000000000D+02
     .720600000000D+04  .400000000000D+01
32 17  3  5  4  0  0.0 -.341363716871D-03 -.131876731757D-10  .000000000000D+00
     .800000000000D+02  .113437500000D+02  .441125517506D-08 -.171445410098D+01
     .670552253723D-06  .843024463393D-03  .103469938040D-04  .515370083427D+04
     .144000000000D+05 -.134110450745D-06  .107053938394D+01 -.117346644402D-06
     .958234160516D+00  .180906250000D+03 -.278550881245D+01 -.788497129785D-08
    -.274297139863D-09  .100000000000D+01  .193900000000D+04  .000000000000D+00
     .240000000000D+01  .000000000000D+00  .465661287308D-09  .800000000000D+02
     .720600000000D+04  .400000000000D+01
14 17  3  5  3 59 44.0 -.614034943283D-04 -.159161572810D-11  .000000000000D+00
     .110000000000D+02  .188437500000D+02  .424089093584D-08 -.295661603977D+01
     .100955367088D-05  .874022336211D-02  .103972852230D-04  .515363012886D+04
     .143840000000D+05 -.242143869400D-07  .115385373597D+01 -.242143869400D-07
     .962315017312D+00  .178812500000D+03 -.196005509623D+01 -.768853454404D-08
    -.170007081477D-09  .100000000000D+01  .193900000000D+04  .000000000000D+00
     .240000000000D+01  .000000000000D+00 -.931322574615D-08  .110000000000D+02
     .945600000000D+04  .400000000000D+01
17 17  3  5  3 59 44.0 -.189117155969D-03  .136424205266D-11  .000000000000D+00
     .000000000000D+00 -.701250000000D+02  .404945439032D-08 -.265652142799D+01
    -.352226197720D-05  .116698768688D-01  .921636819839D-05  .515359681702D+04
     .143840000000D+05  .221654772758D-06 -.201744612588D+01  .335276126862D-07
     .979038321447D+00  .207250000000D+03 -.185742959504D+01 -.774425115057D-08
     .671456540289D-10  .100000000000D+01  .193900000000D+04  .000000000000D+00
     .240000000000D+01  .000000000000D+00 -.107102096081D-07  .000000000000D+00
     .963600000000D+04  .400000000000D+01
